start=new Date('2023-01-12T00:00:00.000Z').valueOf();
sats=[{"RCS_SIZE":"LARGE","CLASSIFICATION_TYPE":"U","BSTAR":"-0.00022802000000","MEAN_ANOMALY":"312.3833","TIME_SYSTEM":"UTC","PERIAPSIS":"538.675","LAUNCH_DATE":"2022-07-24","MEAN_MOTION":"15.08818105","REF_FRAME":"TEME","OBJECT_TYPE":"PAYLOAD","ECCENTRICITY":"0.00016440","TLE_LINE1":"1 53264U 22086Y   23011.89685587 -.00003913  00000-0 -22802-3 0  9996","OBJECT_ID":"2022-086Y","DECAY_DATE":null,"RA_OF_ASC_NODE":"329.2054","EPOCH":"2023-01-11T21:31:28.347168","PERIOD":"95.439","FILE":"3740419","MEAN_ELEMENT_THEORY":"SGP4","SEMIMAJOR_AXIS":"6917.947","GP_ID":"222827129","ELEMENT_SET_NO":"999","OBJECT_NAME":"STARLINK-3950","CENTER_NAME":"EARTH","ARG_OF_PERICENTER":"47.7298","APOAPSIS":"540.950","COUNTRY_CODE":"US","SITE":"AFETR","INCLINATION":"53.2195","MEAN_MOTION_DDOT":"0.0000000000000","TLE_LINE2":"2 53264  53.2195 329.2054 0001644  47.7298 312.3833 15.08818105 27036","EPHEMERIS_TYPE":"0","REV_AT_EPOCH":"2703","MEAN_MOTION_DOT":"-0.00003913","NORAD_CAT_ID":"53264"},{"CLASSIFICATION_TYPE":"U","TIME_SYSTEM":"UTC","BSTAR":"0.00013234000000","MEAN_ANOMALY":"273.7724","RCS_SIZE":"MEDIUM","OBJECT_TYPE":"PAYLOAD","REF_FRAME":"TEME","LAUNCH_DATE":"2022-07-24","PERIAPSIS":"538.741","MEAN_MOTION":"15.08836491","RA_OF_ASC_NODE":"329.2665","DECAY_DATE":null,"OBJECT_ID":"2022-086Z","TLE_LINE1":"1 53265U 22086Z   23011.88214304  .00001819  00000-0  13234-3 0  9991","ECCENTRICITY":"0.00014680","MEAN_ELEMENT_THEORY":"SGP4","FILE":"3740419","EPOCH":"2023-01-11T21:10:17.158656","PERIOD":"95.438","OBJECT_NAME":"STARLINK-4097","GP_ID":"222827818","ELEMENT_SET_NO":"999","SEMIMAJOR_AXIS":"6917.891","COUNTRY_CODE":"US","CENTER_NAME":"EARTH","ARG_OF_PERICENTER":"86.3436","APOAPSIS":"540.772","TLE_LINE2":"2 53265  53.2191 329.2665 0001468  86.3436 273.7724 15.08836491 27035","SITE":"AFETR","INCLINATION":"53.2191","MEAN_MOTION_DDOT":"0.0000000000000","REV_AT_EPOCH":"2703","MEAN_MOTION_DOT":"0.00001819","NORAD_CAT_ID":"53265","EPHEMERIS_TYPE":"0"},{"MEAN_ELEMENT_THEORY":"SGP4","FILE":"3740419","PERIOD":"95.439","EPOCH":"2023-01-11T21:15:35.078688","RA_OF_ASC_NODE":"329.2559","DECAY_DATE":null,"TLE_LINE1":"1 53266U 22086AA  23011.88582267 -.00001398  00000-0 -69781-4 0  9991","OBJECT_ID":"2022-086AA","ECCENTRICITY":"0.00019200","OBJECT_TYPE":"PAYLOAD","REF_FRAME":"TEME","LAUNCH_DATE":"2022-07-24","PERIAPSIS":"538.464","MEAN_MOTION":"15.08824625","MEAN_ANOMALY":"314.9442","BSTAR":"-0.00006978100000","TIME_SYSTEM":"UTC","CLASSIFICATION_TYPE":"U","RCS_SIZE":"LARGE","NORAD_CAT_ID":"53266","MEAN_MOTION_DOT":"-0.00001398","REV_AT_EPOCH":"2703","EPHEMERIS_TYPE":"0","TLE_LINE2":"2 53266  53.2199 329.2559 0001920  45.1706 314.9442 15.08824625 27033","INCLINATION":"53.2199","MEAN_MOTION_DDOT":"0.0000000000000","SITE":"AFETR","COUNTRY_CODE":"US","APOAPSIS":"541.121","ARG_OF_PERICENTER":"45.1706","CENTER_NAME":"EARTH","OBJECT_NAME":"STARLINK-4058","ELEMENT_SET_NO":"999","GP_ID":"222827587","SEMIMAJOR_AXIS":"6917.927"},{"CENTER_NAME":"EARTH","ARG_OF_PERICENTER":"35.6347","APOAPSIS":"540.988","COUNTRY_CODE":"US","OBJECT_NAME":"STARLINK-4060","SEMIMAJOR_AXIS":"6917.837","GP_ID":"222730191","ELEMENT_SET_NO":"999","EPHEMERIS_TYPE":"0","MEAN_MOTION_DOT":"0.00004984","REV_AT_EPOCH":"2675","NORAD_CAT_ID":"53267","TLE_LINE2":"2 53267  53.2190 332.2866 0001860  35.6347 324.4769 15.08854342 26753","SITE":"AFETR","MEAN_MOTION_DDOT":"0.0000000000000","INCLINATION":"53.2190","OBJECT_TYPE":"PAYLOAD","PERIAPSIS":"538.415","LAUNCH_DATE":"2022-07-24","MEAN_MOTION":"15.08854342","REF_FRAME":"TEME","CLASSIFICATION_TYPE":"U","TIME_SYSTEM":"UTC","BSTAR":"0.00033089000000","MEAN_ANOMALY":"324.4769","RCS_SIZE":"LARGE","FILE":"3739509","MEAN_ELEMENT_THEORY":"SGP4","EPOCH":"2023-01-11T05:05:47.937696","PERIOD":"95.437","DECAY_DATE":null,"RA_OF_ASC_NODE":"332.2866","ECCENTRICITY":"0.00018600","TLE_LINE1":"1 53267U 22086AB  23011.21236039  .00004984  00000-0  33089-3 0  9995","OBJECT_ID":"2022-086AB"},{"EPHEMERIS_TYPE":"0","NORAD_CAT_ID":"53268","REV_AT_EPOCH":"2699","MEAN_MOTION_DOT":"0.00004740","TLE_LINE2":"2 53268  53.2187 330.4773 0001695  83.9418 276.1768 15.08848694 26999","INCLINATION":"53.2187","MEAN_MOTION_DDOT":"0.0000000000000","SITE":"AFETR","APOAPSIS":"540.891","ARG_OF_PERICENTER":"83.9418","CENTER_NAME":"EARTH","COUNTRY_CODE":"US","OBJECT_NAME":"STARLINK-4109","SEMIMAJOR_AXIS":"6917.854","ELEMENT_SET_NO":"999","GP_ID":"222826662","FILE":"3740419","MEAN_ELEMENT_THEORY":"SGP4","PERIOD":"95.437","EPOCH":"2023-01-11T14:43:26.415552","DECAY_DATE":null,"RA_OF_ASC_NODE":"330.4773","ECCENTRICITY":"0.00016950","OBJECT_ID":"2022-086AC","TLE_LINE1":"1 53268U 22086AC  23011.61350018  .00004740  00000-0  31564-3 0  9990","OBJECT_TYPE":"PAYLOAD","LAUNCH_DATE":"2022-07-24","PERIAPSIS":"538.546","REF_FRAME":"TEME","MEAN_MOTION":"15.08848694","BSTAR":"0.00031564000000","TIME_SYSTEM":"UTC","MEAN_ANOMALY":"276.1768","CLASSIFICATION_TYPE":"U","RCS_SIZE":"LARGE"},{"CLASSIFICATION_TYPE":"U","BSTAR":"-0.00041114000000","TIME_SYSTEM":"UTC","MEAN_ANOMALY":"318.0362","RCS_SIZE":"LARGE","OBJECT_TYPE":"PAYLOAD","PERIAPSIS":"538.280","LAUNCH_DATE":"2022-07-24","REF_FRAME":"TEME","MEAN_MOTION":"15.08817434","DECAY_DATE":null,"RA_OF_ASC_NODE":"319.3339","ECCENTRICITY":"0.00022180","TLE_LINE1":"1 53269U 22086AD  23011.86833487 -.00006822  00000-0 -41114-3 0  9991","OBJECT_ID":"2022-086AD","FILE":"3740419","MEAN_ELEMENT_THEORY":"SGP4","EPOCH":"2023-01-11T20:50:24.132768","PERIOD":"95.439","OBJECT_NAME":"STARLINK-4057","SEMIMAJOR_AXIS":"6917.949","ELEMENT_SET_NO":"999","GP_ID":"222827360","ARG_OF_PERICENTER":"42.0800","CENTER_NAME":"EARTH","APOAPSIS":"541.349","COUNTRY_CODE":"US","TLE_LINE2":"2 53269  53.2172 319.3339 0002218  42.0800 318.0362 15.08817434 27165","SITE":"AFETR","INCLINATION":"53.2172","MEAN_MOTION_DDOT":"0.0000000000000","EPHEMERIS_TYPE":"0","REV_AT_EPOCH":"2716","MEAN_MOTION_DOT":"-0.00006822","NORAD_CAT_ID":"53269"},{"LAUNCH_DATE":"2022-07-24","PERIAPSIS":"538.786","REF_FRAME":"TEME","MEAN_MOTION":"15.08845588","OBJECT_TYPE":"PAYLOAD","RCS_SIZE":"LARGE","CLASSIFICATION_TYPE":"U","BSTAR":"0.00023333000000","MEAN_ANOMALY":"274.6844","TIME_SYSTEM":"UTC","EPOCH":"2023-01-11T20:39:48.688416","PERIOD":"95.437","FILE":"3740419","MEAN_ELEMENT_THEORY":"SGP4","ECCENTRICITY":"0.00013620","OBJECT_ID":"2022-086AF","TLE_LINE1":"1 53271U 22086AF  23011.86098019  .00003428  00000-0  23333-3 0  9998","DECAY_DATE":null,"RA_OF_ASC_NODE":"319.3757","CENTER_NAME":"EARTH","ARG_OF_PERICENTER":"85.4304","APOAPSIS":"540.671","COUNTRY_CODE":"US","SEMIMAJOR_AXIS":"6917.863","ELEMENT_SET_NO":"999","GP_ID":"222828045","OBJECT_NAME":"STARLINK-4069","EPHEMERIS_TYPE":"0","REV_AT_EPOCH":"2716","MEAN_MOTION_DOT":"0.00003428","NORAD_CAT_ID":"53271","SITE":"AFETR","MEAN_MOTION_DDOT":"0.0000000000000","INCLINATION":"53.2152","TLE_LINE2":"2 53271  53.2152 319.3757 0001362  85.4304 274.6844 15.08845588 27162"},{"OBJECT_TYPE":"PAYLOAD","REF_FRAME":"TEME","LAUNCH_DATE":"2022-07-24","PERIAPSIS":"538.174","MEAN_MOTION":"15.08855819","MEAN_ANOMALY":"319.8473","BSTAR":"0.00002223200000","TIME_SYSTEM":"UTC","CLASSIFICATION_TYPE":"U","RCS_SIZE":"LARGE","MEAN_ELEMENT_THEORY":"SGP4","FILE":"3740054","PERIOD":"95.437","EPOCH":"2023-01-11T01:51:02.403360","RA_OF_ASC_NODE":"322.8844","DECAY_DATE":null,"OBJECT_ID":"2022-086AG","TLE_LINE1":"1 53272U 22086AG  23011.07711115  .00000066  00000-0  22232-4 0  9994","ECCENTRICITY":"0.00022020","COUNTRY_CODE":"US","APOAPSIS":"541.220","ARG_OF_PERICENTER":"40.2681","CENTER_NAME":"EARTH","OBJECT_NAME":"STARLINK-4122","ELEMENT_SET_NO":"999","GP_ID":"222769059","SEMIMAJOR_AXIS":"6917.832","NORAD_CAT_ID":"53272","REV_AT_EPOCH":"2704","MEAN_MOTION_DOT":"0.00000066","EPHEMERIS_TYPE":"0","TLE_LINE2":"2 53272  53.2148 322.8844 0002202  40.2681 319.8473 15.08855819 27040","INCLINATION":"53.2148","MEAN_MOTION_DDOT":"0.0000000000000","SITE":"AFETR"},{"RCS_SIZE":"LARGE","CLASSIFICATION_TYPE":"U","TIME_SYSTEM":"UTC","BSTAR":"-0.00007476100000","MEAN_ANOMALY":"330.0446","MEAN_MOTION":"15.08879199","LAUNCH_DATE":"2022-07-24","PERIAPSIS":"538.053","REF_FRAME":"TEME","OBJECT_TYPE":"PAYLOAD","OBJECT_ID":"2022-086AH","TLE_LINE1":"1 53273U 22086AH  23011.85358115 -.00001479  00000-0 -74761-4 0  9993","ECCENTRICITY":"0.00022730","RA_OF_ASC_NODE":"319.4169","DECAY_DATE":null,"EPOCH":"2023-01-11T20:29:09.411360","PERIOD":"95.435","MEAN_ELEMENT_THEORY":"SGP4","FILE":"3740419","GP_ID":"222827130","ELEMENT_SET_NO":"999","SEMIMAJOR_AXIS":"6917.761","OBJECT_NAME":"STARLINK-4051","COUNTRY_CODE":"US","CENTER_NAME":"EARTH","ARG_OF_PERICENTER":"30.0676","APOAPSIS":"541.198","SITE":"AFETR","INCLINATION":"53.2185","MEAN_MOTION_DDOT":"0.0000000000000","TLE_LINE2":"2 53273  53.2185 319.4169 0002273  30.0676 330.0446 15.08879199 27157","REV_AT_EPOCH":"2715","MEAN_MOTION_DOT":"-0.00001479","NORAD_CAT_ID":"53273","EPHEMERIS_TYPE":"0"},{"CENTER_NAME":"EARTH","ARG_OF_PERICENTER":"38.4992","APOAPSIS":"541.054","COUNTRY_CODE":"US","OBJECT_NAME":"STARLINK-4050","SEMIMAJOR_AXIS":"6917.846","GP_ID":"222827819","ELEMENT_SET_NO":"999","EPHEMERIS_TYPE":"0","REV_AT_EPOCH":"2716","MEAN_MOTION_DOT":"0.00003234","NORAD_CAT_ID":"53274","TLE_LINE2":"2 53274  53.2170 319.3498 0001941  38.4992 321.6138 15.08851088 27162","SITE":"AFETR","INCLINATION":"53.2170","MEAN_MOTION_DDOT":"0.0000000000000","OBJECT_TYPE":"PAYLOAD","LAUNCH_DATE":"2022-07-24","MEAN_MOTION":"15.08851088","PERIAPSIS":"538.369","REF_FRAME":"TEME","CLASSIFICATION_TYPE":"U","MEAN_ANOMALY":"321.6138","BSTAR":"0.00022112000000","TIME_SYSTEM":"UTC","RCS_SIZE":"LARGE","FILE":"3740419","MEAN_ELEMENT_THEORY":"SGP4","EPOCH":"2023-01-11T20:45:04.736160","PERIOD":"95.437","DECAY_DATE":null,"RA_OF_ASC_NODE":"319.3498","ECCENTRICITY":"0.00019410","OBJECT_ID":"2022-086AJ","TLE_LINE1":"1 53274U 22086AJ  23011.86463815  .00003234  00000-0  22112-3 0  9990"}];
